start=new Date('2022-10-14T00:00:00.000Z').valueOf();
sats=[{"APOAPSIS":"548.253","MEAN_ELEMENT_THEORY":"SGP4","NORAD_CAT_ID":"48296","TIME_SYSTEM":"UTC","MEAN_MOTION_DOT":"0.00000963","CENTER_NAME":"EARTH","LAUNCH_DATE":"2021-04-29","RA_OF_ASC_NODE":"261.7424","CLASSIFICATION_TYPE":"U","DECAY_DATE":null,"MEAN_MOTION_DDOT":"0.0000000000000","COUNTRY_CODE":"US","ARG_OF_PERICENTER":"66.7017","FILE":"3609636","REV_AT_EPOCH":"8096","OBJECT_ID":"2021-036W","EPHEMERIS_TYPE":"0","SITE":"AFETR","SEMIMAJOR_AXIS":"6925.366","PERIAPSIS":"546.210","INCLINATION":"53.0539","TLE_LINE2":"2 48296  53.0539 261.7424 0001475  66.7017 293.4127 15.06394146 80966","PERIOD":"95.593","MEAN_ANOMALY":"293.4127","TLE_LINE1":"1 48296U 21036W   22286.67398859  .00000963  00000-0  83566-4 0  9996","OBJECT_TYPE":"PAYLOAD","GP_ID":"215026809","REF_FRAME":"TEME","ELEMENT_SET_NO":"999","ECCENTRICITY":"0.00014750","OBJECT_NAME":"STARLINK-2546","BSTAR":"0.00008356600000","EPOCH":"2022-10-13T16:10:32.614176","RCS_SIZE":"LARGE","MEAN_MOTION":"15.06394146"},{"MEAN_MOTION_DOT":"0.00000902","TIME_SYSTEM":"UTC","NORAD_CAT_ID":"48297","MEAN_ELEMENT_THEORY":"SGP4","RA_OF_ASC_NODE":"261.7486","LAUNCH_DATE":"2021-04-29","CENTER_NAME":"EARTH","APOAPSIS":"548.559","OBJECT_ID":"2021-036X","EPHEMERIS_TYPE":"0","FILE":"3609636","REV_AT_EPOCH":"8096","SEMIMAJOR_AXIS":"6925.372","PERIAPSIS":"545.915","SITE":"AFETR","MEAN_MOTION_DDOT":"0.0000000000000","DECAY_DATE":null,"CLASSIFICATION_TYPE":"U","ARG_OF_PERICENTER":"47.6145","COUNTRY_CODE":"US","OBJECT_TYPE":"PAYLOAD","TLE_LINE1":"1 48297U 21036X   22286.67030221  .00000902  00000-0  79489-4 0  9995","MEAN_ANOMALY":"312.5005","PERIOD":"95.593","INCLINATION":"53.0550","TLE_LINE2":"2 48297  53.0550 261.7486 0001909  47.6145 312.5005 15.06392408 80967","EPOCH":"2022-10-13T16:05:14.110944","BSTAR":"0.00007948900000","OBJECT_NAME":"STARLINK-2544","MEAN_MOTION":"15.06392408","RCS_SIZE":"LARGE","REF_FRAME":"TEME","GP_ID":"215027045","ELEMENT_SET_NO":"999","ECCENTRICITY":"0.00019090"},{"RA_OF_ASC_NODE":"261.7769","LAUNCH_DATE":"2021-04-29","CENTER_NAME":"EARTH","NORAD_CAT_ID":"48298","TIME_SYSTEM":"UTC","MEAN_MOTION_DOT":"0.00006190","MEAN_ELEMENT_THEORY":"SGP4","APOAPSIS":"548.420","SEMIMAJOR_AXIS":"6925.313","PERIAPSIS":"545.936","SITE":"AFETR","OBJECT_ID":"2021-036Y","EPHEMERIS_TYPE":"0","FILE":"3609636","REV_AT_EPOCH":"8096","ARG_OF_PERICENTER":"50.6512","COUNTRY_CODE":"US","MEAN_MOTION_DDOT":"0.0000000000000","DECAY_DATE":null,"CLASSIFICATION_TYPE":"U","OBJECT_TYPE":"PAYLOAD","TLE_LINE1":"1 48298U 21036Y   22286.66660508  .00006190  00000-0  43394-3 0  9992","MEAN_ANOMALY":"309.4636","PERIOD":"95.591","TLE_LINE2":"2 48298  53.0550 261.7769 0001793  50.6512 309.4636 15.06411639 80968","INCLINATION":"53.0550","RCS_SIZE":"LARGE","MEAN_MOTION":"15.06411639","EPOCH":"2022-10-13T15:59:54.678912","OBJECT_NAME":"STARLINK-2559","BSTAR":"0.00043394000000","ECCENTRICITY":"0.00017930","ELEMENT_SET_NO":"999","REF_FRAME":"TEME","GP_ID":"215025808"},{"REF_FRAME":"TEME","GP_ID":"214992741","ELEMENT_SET_NO":"999","ECCENTRICITY":"0.00015750","EPOCH":"2022-10-13T06:21:22.956192","BSTAR":"0.00005368000000","OBJECT_NAME":"STARLINK-2557","MEAN_MOTION":"15.06394518","RCS_SIZE":"LARGE","MEAN_ANOMALY":"285.8370","PERIOD":"95.592","INCLINATION":"53.0548","TLE_LINE2":"2 48299  53.0548 263.5641 0001575  74.2793 285.8370 15.06394518 80908","OBJECT_TYPE":"PAYLOAD","TLE_LINE1":"1 48299U 21036Z   22286.26484903  .00000518  00000-0  53680-4 0  9990","MEAN_MOTION_DDOT":"0.0000000000000","DECAY_DATE":null,"CLASSIFICATION_TYPE":"U","ARG_OF_PERICENTER":"74.2793","COUNTRY_CODE":"US","EPHEMERIS_TYPE":"0","OBJECT_ID":"2021-036Z","FILE":"3609209","REV_AT_EPOCH":"8090","SEMIMAJOR_AXIS":"6925.365","PERIAPSIS":"546.140","SITE":"AFETR","APOAPSIS":"548.321","MEAN_MOTION_DOT":"0.00000518","TIME_SYSTEM":"UTC","NORAD_CAT_ID":"48299","MEAN_ELEMENT_THEORY":"SGP4","RA_OF_ASC_NODE":"263.5641","LAUNCH_DATE":"2021-04-29","CENTER_NAME":"EARTH"},{"APOAPSIS":"548.414","MEAN_ELEMENT_THEORY":"SGP4","NORAD_CAT_ID":"48300","TIME_SYSTEM":"UTC","MEAN_MOTION_DOT":"0.00000332","LAUNCH_DATE":"2021-04-29","CENTER_NAME":"EARTH","RA_OF_ASC_NODE":"271.8072","CLASSIFICATION_TYPE":"U","DECAY_DATE":null,"MEAN_MOTION_DDOT":"0.0000000000000","COUNTRY_CODE":"US","ARG_OF_PERICENTER":"52.9259","REV_AT_EPOCH":"8082","FILE":"3609636","OBJECT_ID":"2021-036AA","EPHEMERIS_TYPE":"0","SITE":"AFETR","PERIAPSIS":"546.087","SEMIMAJOR_AXIS":"6925.386","TLE_LINE2":"2 48300  53.0543 271.8072 0001680  52.9259 307.1883 15.06387881 80826","INCLINATION":"53.0543","PERIOD":"95.593","MEAN_ANOMALY":"307.1883","TLE_LINE1":"1 48300U 21036AA  22286.65464009  .00000332  00000-0  41168-4 0  9993","OBJECT_TYPE":"PAYLOAD","GP_ID":"215026309","REF_FRAME":"TEME","ECCENTRICITY":"0.00016800","ELEMENT_SET_NO":"999","OBJECT_NAME":"STARLINK-2538","BSTAR":"0.00004116800000","EPOCH":"2022-10-13T15:42:40.903776","RCS_SIZE":"LARGE","MEAN_MOTION":"15.06387881"},{"SITE":"AFETR","PERIAPSIS":"546.212","SEMIMAJOR_AXIS":"6925.396","FILE":"3609209","REV_AT_EPOCH":"8077","EPHEMERIS_TYPE":"0","OBJECT_ID":"2021-036AB","COUNTRY_CODE":"US","ARG_OF_PERICENTER":"64.8467","DECAY_DATE":null,"CLASSIFICATION_TYPE":"U","MEAN_MOTION_DDOT":"0.0000000000000","CENTER_NAME":"EARTH","LAUNCH_DATE":"2021-04-29","RA_OF_ASC_NODE":"273.0356","MEAN_ELEMENT_THEORY":"SGP4","MEAN_MOTION_DOT":"-0.00000035","NORAD_CAT_ID":"48301","TIME_SYSTEM":"UTC","APOAPSIS":"548.309","MEAN_MOTION":"15.06384677","RCS_SIZE":"LARGE","BSTAR":"0.00001656600000","OBJECT_NAME":"STARLINK-2537","EPOCH":"2022-10-13T09:15:13.075200","ECCENTRICITY":"0.00015140","ELEMENT_SET_NO":"999","GP_ID":"214993743","REF_FRAME":"TEME","OBJECT_TYPE":"PAYLOAD","TLE_LINE1":"1 48301U 21036AB  22286.38556800 -.00000035  00000-0  16566-4 0  9990","INCLINATION":"53.0551","TLE_LINE2":"2 48301  53.0551 273.0356 0001514  64.8467 295.2679 15.06384677 80778","PERIOD":"95.593","MEAN_ANOMALY":"295.2679"},{"GP_ID":"215025308","REF_FRAME":"TEME","ECCENTRICITY":"0.00017480","ELEMENT_SET_NO":"999","BSTAR":"0.00019569000000","OBJECT_NAME":"STARLINK-2556","EPOCH":"2022-10-13T20:18:40.745088","MEAN_MOTION":"15.06395538","RCS_SIZE":"LARGE","TLE_LINE2":"2 48302  53.0544 270.9530 0001748  57.8436 302.2722 15.06395538 80842","INCLINATION":"53.0544","MEAN_ANOMALY":"302.2722","PERIOD":"95.592","TLE_LINE1":"1 48302U 21036AC  22286.84630492  .00002634  00000-0  19569-3 0  9993","OBJECT_TYPE":"PAYLOAD","DECAY_DATE":null,"CLASSIFICATION_TYPE":"U","MEAN_MOTION_DDOT":"0.0000000000000","COUNTRY_CODE":"US","ARG_OF_PERICENTER":"57.8436","REV_AT_EPOCH":"8084","FILE":"3609636","EPHEMERIS_TYPE":"0","OBJECT_ID":"2021-036AC","SITE":"AFETR","SEMIMAJOR_AXIS":"6925.362","PERIAPSIS":"546.017","APOAPSIS":"548.438","MEAN_ELEMENT_THEORY":"SGP4","MEAN_MOTION_DOT":"0.00002634","NORAD_CAT_ID":"48302","TIME_SYSTEM":"UTC","LAUNCH_DATE":"2021-04-29","CENTER_NAME":"EARTH","RA_OF_ASC_NODE":"270.9530"},{"EPOCH":"2022-10-13T09:03:13.891104","BSTAR":"0.00002516500000","OBJECT_NAME":"STARLINK-2530","MEAN_MOTION":"15.06398608","RCS_SIZE":"LARGE","REF_FRAME":"TEME","GP_ID":"214992242","ECCENTRICITY":"0.00017740","ELEMENT_SET_NO":"999","TLE_LINE1":"1 48303U 21036AD  22286.37724411  .00000093  00000-0  25165-4 0  9994","OBJECT_TYPE":"PAYLOAD","PERIOD":"95.592","MEAN_ANOMALY":"304.6824","INCLINATION":"53.0555","TLE_LINE2":"2 48303  53.0555 273.0636 0001774  55.4333 304.6824 15.06398608 80777","EPHEMERIS_TYPE":"0","OBJECT_ID":"2021-036AD","FILE":"3609209","REV_AT_EPOCH":"8077","PERIAPSIS":"545.989","SEMIMAJOR_AXIS":"6925.353","SITE":"AFETR","MEAN_MOTION_DDOT":"0.0000000000000","CLASSIFICATION_TYPE":"U","DECAY_DATE":null,"ARG_OF_PERICENTER":"55.4333","COUNTRY_CODE":"US","MEAN_MOTION_DOT":"0.00000093","NORAD_CAT_ID":"48303","TIME_SYSTEM":"UTC","MEAN_ELEMENT_THEORY":"SGP4","RA_OF_ASC_NODE":"273.0636","CENTER_NAME":"EARTH","LAUNCH_DATE":"2021-04-29","APOAPSIS":"548.446"},{"APOAPSIS":"548.343","CENTER_NAME":"EARTH","LAUNCH_DATE":"2021-04-29","RA_OF_ASC_NODE":"272.7765","MEAN_ELEMENT_THEORY":"SGP4","TIME_SYSTEM":"UTC","NORAD_CAT_ID":"48304","MEAN_MOTION_DOT":"0.00001407","COUNTRY_CODE":"US","ARG_OF_PERICENTER":"61.3059","CLASSIFICATION_TYPE":"U","DECAY_DATE":null,"MEAN_MOTION_DDOT":"0.0000000000000","SITE":"AFETR","PERIAPSIS":"546.106","SEMIMAJOR_AXIS":"6925.359","REV_AT_EPOCH":"8078","FILE":"3609209","EPHEMERIS_TYPE":"0","OBJECT_ID":"2021-036AE","INCLINATION":"53.0537","TLE_LINE2":"2 48304  53.0537 272.7765 0001615  61.3059 298.8092 15.06396515 80789","MEAN_ANOMALY":"298.8092","PERIOD":"95.592","TLE_LINE1":"1 48304U 21036AE  22286.44084789  .00001407  00000-0  11338-3 0  9996","OBJECT_TYPE":"PAYLOAD","ELEMENT_SET_NO":"999","ECCENTRICITY":"0.00016150","GP_ID":"214993493","REF_FRAME":"TEME","RCS_SIZE":"LARGE","MEAN_MOTION":"15.06396515","OBJECT_NAME":"STARLINK-2524","BSTAR":"0.00011338000000","EPOCH":"2022-10-13T10:34:49.257696"},{"MEAN_MOTION_DOT":"0.00002419","TIME_SYSTEM":"UTC","NORAD_CAT_ID":"48305","MEAN_ELEMENT_THEORY":"SGP4","RA_OF_ASC_NODE":"271.6130","LAUNCH_DATE":"2021-04-29","CENTER_NAME":"EARTH","APOAPSIS":"548.505","OBJECT_ID":"2021-036AF","EPHEMERIS_TYPE":"0","REV_AT_EPOCH":"8082","FILE":"3609636","PERIAPSIS":"545.957","SEMIMAJOR_AXIS":"6925.366","SITE":"AFETR","MEAN_MOTION_DDOT":"0.0000000000000","CLASSIFICATION_TYPE":"U","DECAY_DATE":null,"ARG_OF_PERICENTER":"54.3735","COUNTRY_CODE":"US","OBJECT_TYPE":"PAYLOAD","TLE_LINE1":"1 48305U 21036AF  22286.70161038  .00002419  00000-0  18128-3 0  9997","MEAN_ANOMALY":"305.7425","PERIOD":"95.592","INCLINATION":"53.0526","TLE_LINE2":"2 48305  53.0526 271.6130 0001840  54.3735 305.7425 15.06394331 80822","EPOCH":"2022-10-13T16:50:19.136832","BSTAR":"0.00018128000000","OBJECT_NAME":"STARLINK-2519","MEAN_MOTION":"15.06394331","RCS_SIZE":"LARGE","REF_FRAME":"TEME","GP_ID":"215027046","ECCENTRICITY":"0.00018400","ELEMENT_SET_NO":"999"}];
